{"type": "FeatureCollection", "features": [ {"type": "Feature", "properties": {"norad_id": 37996, "name": "COSMOS 2251 DEB", "group": "cosmos-2251-debris", "lat": 57.19596539802584, "lon": -115.91920025114666, "alt_km": 851.098327490331, "timestamp": "2025-12-04T10:51:50.504055+00:00", "meta": {"OBJECT_NAME": "COSMOS 2251 DEB", "OBJECT_ID": "1993-036BQX", "EPOCH": "2025-11-16T18:35:00.708864", "MEAN_MOTION": 14.09591608, "ECCENTRICITY": 0.02219827, "INCLINATION": 74.0658, "RA_OF_ASC_NODE": 248.8308, "ARG_OF_PERICENTER": 5.4709, "MEAN_ANOMALY": 354.8776, "EPHEMERIS_TYPE": 0, "CLASSIFICATION_TYPE": "U", "NORAD_CAT_ID": 37996, "ELEMENT_SET_NO": 999, "REV_AT_EPOCH": 55769, "BSTAR": 0.0096790999, "MEAN_MOTION_DOT": 0.00021331, "MEAN_MOTION_DDOT": 0}, "tle": {"line1": "1 37996U 93036BQX 25320.77431376  .00021331  00000+0  96791-2 0  9998", "line2": "2 37996  74.0658 248.8308 0221982   5.4709 354.8776 14.09591608557693"}}, "geometry": {"type": "Point", "coordinates": [-115.91920025114666, 57.19596539802584]}}, {"type": "Feature", "properties": {"norad_id": 37998, "name": "COSMOS 2251 DEB", "group": "cosmos-2251-debris", "lat": 73.97478099979566, "lon": -24.20108350827653, "alt_km": 740.856442783539, "timestamp": "2025-12-04T10:51:50.504065+00:00", "meta": {"OBJECT_NAME": "COSMOS 2251 DEB", "OBJECT_ID": "1993-036BQZ", "EPOCH": "2025-11-29T12:31:01.771392", "MEAN_MOTION": 14.45395467, "ECCENTRICITY": 0.00197878, "INCLINATION": 74.0369, "RA_OF_ASC_NODE": 259.7366, "ARG_OF_PERICENTER": 336.2714, "MEAN_ANOMALY": 23.753, "EPHEMERIS_TYPE": 0, "CLASSIFICATION_TYPE": "U", "NORAD_CAT_ID": 37998, "ELEMENT_SET_NO": 999, "REV_AT_EPOCH": 64096, "BSTAR": 0.00059073677, "MEAN_MOTION_DOT": 2.057e-05, "MEAN_MOTION_DDOT": 0}, "tle": {"line1": "1 37998U 93036BQZ 25333.52154828  .00002057  00000+0  59074-3 0  9999", "line2": "2 37998  74.0369 259.7366 0019787 336.2714  23.7530 14.45395467640966"}}, "geometry": {"type": "Point", "coordinates": [-24.20108350827653, 73.97478099979566]}}, {"type": "Feature", "properties": {"norad_id": 38001, "name": "COSMOS 2251 DEB", "group": "cosmos-2251-debris", "lat": 50.91811973255989, "lon": -52.030792755134804, "alt_km": 673.1127401768244, "timestamp": "2025-12-04T10:51:50.504075+00:00", "meta": {"OBJECT_NAME": "COSMOS 2251 DEB", "OBJECT_ID": "1993-036BRC", "EPOCH": "2025-12-03T18:07:39.491616", "MEAN_MOTION": 14.7891192, "ECCENTRICITY": 0.00652041, "INCLINATION": 73.9988, "RA_OF_ASC_NODE": 150.0344, "ARG_OF_PERICENTER": 301.1673, "MEAN_ANOMALY": 73.7814, "EPHEMERIS_TYPE": 0, "CLASSIFICATION_TYPE": "U", "NORAD_CAT_ID": 38001, "ELEMENT_SET_NO": 999, "REV_AT_EPOCH": 74575, "BSTAR": 0.0010433043, "MEAN_MOTION_DOT": 7.945e-05, "MEAN_MOTION_DDOT": 0}, "tle": {"line1": "1 38001U 93036BRC 25337.75531819  .00007945  00000+0  10433-2 0  9999", "line2": "2 38001  73.9988 150.0344 0065204 301.1673  73.7814 14.78911920745753"}}, "geometry": {"type": "Point", "coordinates": [-52.030792755134804, 50.91811973255989]}}, {"type": "Feature", "properties": {"norad_id": 38006, "name": "COSMOS 2251 DEB", "group": "cosmos-2251-debris", "lat": -52.58652354876632, "lon": -104.06878262670325, "alt_km": 779.4383920177825, "timestamp": "2025-12-04T10:51:50.504086+00:00", "meta": {"OBJECT_NAME": "COSMOS 2251 DEB", "OBJECT_ID": "1993-036BRH", "EPOCH": "2025-12-01T12:00:57.044736", "MEAN_MOTION": 14.45530874, "ECCENTRICITY": 0.00745141, "INCLINATION": 73.8466, "RA_OF_ASC_NODE": 59.2312, "ARG_OF_PERICENTER": 10.3044, "MEAN_ANOMALY": 349.9618, "EPHEMERIS_TYPE": 0, "CLASSIFICATION_TYPE": "U", "NORAD_CAT_ID": 38006, "ELEMENT_SET_NO": 999, "REV_AT_EPOCH": 62797, "BSTAR": 0.0024598906, "MEAN_MOTION_DOT": 8.963e-05, "MEAN_MOTION_DDOT": 0}, "tle": {"line1": "1 38006U 93036BRH 25335.50066024  .00008963  00000+0  24599-2 0  9995", "line2": "2 38006  73.8466  59.2312 0074514  10.3044 349.9618 14.45530874627970"}}, "geometry": {"type": "Point", "coordinates": [-104.06878262670325, -52.58652354876632]}}, {"type": "Feature", "properties": {"norad_id": 38054, "name": "COSMOS 2251 DEB", "group": "cosmos-2251-debris", "lat": -32.34226799575964, "lon": -91.14504329929461, "alt_km": 921.6445451413083, "timestamp": "2025-12-04T10:51:50.504096+00:00", "meta": {"OBJECT_NAME": "COSMOS 2251 DEB", "OBJECT_ID": "1993-036BRL", "EPOCH": "2025-12-02T22:19:42.729888", "MEAN_MOTION": 13.62240867, "ECCENTRICITY": 0.03612337, "INCLINATION": 73.958, "RA_OF_ASC_NODE": 281.8404, "ARG_OF_PERICENTER": 261.8039, "MEAN_ANOMALY": 157.9186, "EPHEMERIS_TYPE": 0, "CLASSIFICATION_TYPE": "U", "NORAD_CAT_ID": 38054, "ELEMENT_SET_NO": 999, "REV_AT_EPOCH": 67046, "BSTAR": 0.0040803835, "MEAN_MOTION_DOT": 4.866e-05, "MEAN_MOTION_DDOT": 0}, "tle": {"line1": "1 38054U 93036BRL 25336.93035567  .00004866  00000+0  40804-2 0  9999", "line2": "2 38054  73.9580 281.8404 0361233 261.8039 157.9186 13.62240867670467"}}, "geometry": {"type": "Point", "coordinates": [-91.14504329929461, -32.34226799575964]}}, {"type": "Feature", "properties": {"norad_id": 38055, "name": "COSMOS 2251 DEB", "group": "cosmos-2251-debris", "lat": 71.03008160041404, "lon": -80.4371560398181, "alt_km": 629.6862729433769, "timestamp": "2025-12-04T10:51:50.504106+00:00", "meta": {"OBJECT_NAME": "COSMOS 2251 DEB", "OBJECT_ID": "1993-036BRM", "EPOCH": "2025-12-03T23:12:11.348064", "MEAN_MOTION": 14.76808172, "ECCENTRICITY": 0.0065679, "INCLINATION": 74.0095, "RA_OF_ASC_NODE": 223.9806, "ARG_OF_PERICENTER": 353.4714, "MEAN_ANOMALY": 23.4037, "EPHEMERIS_TYPE": 0, "CLASSIFICATION_TYPE": "U", "NORAD_CAT_ID": 38055, "ELEMENT_SET_NO": 999, "REV_AT_EPOCH": 60553, "BSTAR": 0.0017536, "MEAN_MOTION_DOT": 0.0001274, "MEAN_MOTION_DDOT": 0}, "tle": {"line1": "1 38055U 93036BRM 25337.96679801  .00012740  00000+0  17536-2 0  9995", "line2": "2 38055  74.0095 223.9806 0065679 353.4714  23.4037 14.76808172605530"}}, "geometry": {"type": "Point", "coordinates": [-80.4371560398181, 71.03008160041404]}}, {"type": "Feature", "properties": {"norad_id": 38060, "name": "COSMOS 2251 DEB", "group": "cosmos-2251-debris", "lat": -25.75663329614171, "lon": -56.719828313485635, "alt_km": 683.5816241231032, "timestamp": "2025-12-04T10:51:50.504116+00:00", "meta": {"OBJECT_NAME": "COSMOS 2251 DEB", "OBJECT_ID": "1993-036BRS", "EPOCH": "2025-11-30T16:46:11.567136", "MEAN_MOTION": 14.63742552, "ECCENTRICITY": 0.0057629, "INCLINATION": 74.0424, "RA_OF_ASC_NODE": 318.4162, "ARG_OF_PERICENTER": 67.815, "MEAN_ANOMALY": 292.9119, "EPHEMERIS_TYPE": 0, "CLASSIFICATION_TYPE": "U", "NORAD_CAT_ID": 38060, "ELEMENT_SET_NO": 999, "REV_AT_EPOCH": 71788, "BSTAR": 0.00051174098, "MEAN_MOTION_DOT": 2.701e-05, "MEAN_MOTION_DDOT": 0}, "tle": {"line1": "1 38060U 93036BRS 25334.69874499  .00002701  00000+0  51174-3 0  9991", "line2": "2 38060  74.0424 318.4162 0057629  67.8150 292.9119 14.63742552717884"}}, "geometry": {"type": "Point", "coordinates": [-56.719828313485635, -25.75663329614171]}}, {"type": "Feature", "properties": {"norad_id": 38062, "name": "COSMOS 2251 DEB", "group": "cosmos-2251-debris", "lat": 66.31449704677327, "lon": 86.37394870419486, "alt_km": 571.2565898068633, "timestamp": "2025-12-04T10:51:50.504126+00:00", "meta": {"OBJECT_NAME": "COSMOS 2251 DEB", "OBJECT_ID": "1993-036BRU", "EPOCH": "2025-12-02T15:30:52.155072", "MEAN_MOTION": 14.9400707, "ECCENTRICITY": 0.0011947, "INCLINATION": 74.0086, "RA_OF_ASC_NODE": 310.8403, "ARG_OF_PERICENTER": 79.5377, "MEAN_ANOMALY": 37.1284, "EPHEMERIS_TYPE": 0, "CLASSIFICATION_TYPE": "U", "NORAD_CAT_ID": 38062, "ELEMENT_SET_NO": 999, "REV_AT_EPOCH": 62879, "BSTAR": 0.0028464492, "MEAN_MOTION_DOT": 0.00030496, "MEAN_MOTION_DDOT": 0}, "tle": {"line1": "1 38062U 93036BRU 25336.64643698  .00030496  00000+0  28464-2 0  9992", "line2": "2 38062  74.0086 310.8403 0011947  79.5377  37.1284 14.94007070628794"}}, "geometry": {"type": "Point", "coordinates": [86.37394870419486, 66.31449704677327]}}, {"type": "Feature", "properties": {"norad_id": 38064, "name": "COSMOS 2251 DEB", "group": "cosmos-2251-debris", "lat": 73.61374458376001, "lon": -143.10770568967692, "alt_km": 731.661013690863, "timestamp": "2025-12-04T10:51:50.504136+00:00", "meta": {"OBJECT_NAME": "COSMOS 2251 DEB", "OBJECT_ID": "1993-036BRW", "EPOCH": "2025-12-02T10:38:59.788320", "MEAN_MOTION": 14.5615683, "ECCENTRICITY": 0.00475633, "INCLINATION": 74.0206, "RA_OF_ASC_NODE": 143.6816, "ARG_OF_PERICENTER": 264.8725, "MEAN_ANOMALY": 94.7009, "EPHEMERIS_TYPE": 0, "CLASSIFICATION_TYPE": "U", "NORAD_CAT_ID": 38064, "ELEMENT_SET_NO": 999, "REV_AT_EPOCH": 71715, "BSTAR": 0.0011546994, "MEAN_MOTION_DOT": 5.15e-05, "MEAN_MOTION_DDOT": 0}, "tle": {"line1": "1 38064U 93036BRW 25336.44374755  .00005150  00000+0  11547-2 0  9990", "line2": "2 38064  74.0206 143.6816 0047563 264.8725  94.7009 14.56156830717159"}}, "geometry": {"type": "Point", "coordinates": [-143.10770568967692, 73.61374458376001]}}, {"type": "Feature", "properties": {"norad_id": 38067, "name": "COSMOS 2251 DEB", "group": "cosmos-2251-debris", "lat": -70.36244021623838, "lon": -123.07237156951815, "alt_km": 742.2548188073688, "timestamp": "2025-12-04T10:51:50.504147+00:00", "meta": {"OBJECT_NAME": "COSMOS 2251 DEB", "OBJECT_ID": "1993-036BRZ", "EPOCH": "2025-11-29T04:46:36.876288", "MEAN_MOTION": 14.61044936, "ECCENTRICITY": 0.00691529, "INCLINATION": 74.017, "RA_OF_ASC_NODE": 300.4181, "ARG_OF_PERICENTER": 91.9303, "MEAN_ANOMALY": 288.2542, "EPHEMERIS_TYPE": 0, "CLASSIFICATION_TYPE": "U", "NORAD_CAT_ID": 38067, "ELEMENT_SET_NO": 999, "REV_AT_EPOCH": 62358, "BSTAR": 0.00037425936, "MEAN_MOTION_DOT": 1.87e-05, "MEAN_MOTION_DDOT": 0}, "tle": {"line1": "1 38067U 93036BRZ 25333.19903792  .00001870  00000+0  37426-3 0  9991", "line2": "2 38067  74.0170 300.4181 0069152  91.9303 288.2542 14.61044936623583"}}, "geometry": {"type": "Point", "coordinates": [-123.07237156951815, -70.36244021623838]}}]}